{
  "type": "FeatureCollection",
  "features": [
    {
      "type": "Feature",
      "properties": {
        "norad_id": 43262,
        "name": "GAOFEN-1 04",
        "group": "resource",
        "lat": -68.68280885914105,
        "lon": -142.27630049198046,
        "alt_km": 648.2024571302272,
        "timestamp": "2025-12-27T05:29:38.851817+00:00",
        "meta_object_name": "GAOFEN-1 04",
        "meta_object_id": "2018-031D",
        "meta_epoch": "2025-12-26T23:29:05.506080",
        "meta_mean_motion": 14.76433492,
        "meta_eccentricity": 4.759e-05,
        "meta_inclination": 98.0784,
        "meta_ra_of_asc_node": 58.8175,
        "meta_arg_of_pericenter": 70.9035,
        "meta_mean_anomaly": 289.2225,
        "meta_ephemeris_type": 0,
        "meta_classification_type": "U",
        "meta_norad_cat_id": 43262,
        "meta_element_set_no": 999,
        "meta_rev_at_epoch": 41727,
        "meta_bstar": 9.3031406e-05,
        "meta_mean_motion_dot": 5.95e-06,
        "meta_mean_motion_ddot": 0,
        "tle_line1": "1 43262U 18031D   25360.97853595  .00000595  00000+0  93031-4 0  9995",
        "tle_line2": "2 43262  98.0784  58.8175 0000475  70.9035 289.2225 14.76433492417273"
      },
      "geometry": {
        "type": "Point",
        "coordinates": [
          -142.27630049198046,
          -68.68280885914105
        ]
      }
    },
    {
      "type": "Feature",
      "properties": {
        "norad_id": 43437,
        "name": "SENTINEL-3B",
        "group": "resource",
        "lat": -11.5541472546217,
        "lon": 67.98337295276683,
        "alt_km": 807.1172824336136,
        "timestamp": "2025-12-27T05:29:38.851827+00:00",
        "meta_object_name": "SENTINEL-3B",
        "meta_object_id": "2018-039A",
        "meta_epoch": "2025-12-26T22:48:58.746816",
        "meta_mean_motion": 14.26739583,
        "meta_eccentricity": 0.00015662,
        "meta_inclination": 98.6249,
        "meta_ra_of_asc_node": 65.9311,
        "meta_arg_of_pericenter": 87.719,
        "meta_mean_anomaly": 272.417,
        "meta_ephemeris_type": 0,
        "meta_classification_type": "U",
        "meta_norad_cat_id": 43437,
        "meta_element_set_no": 999,
        "meta_rev_at_epoch": 39956,
        "meta_bstar": 8.4299815e-05,
        "meta_mean_motion_dot": 1.6e-06,
        "meta_mean_motion_ddot": 0,
        "tle_line1": "1 43437U 18039A   25360.95067994  .00000160  00000+0  84300-4 0  9992",
        "tle_line2": "2 43437  98.6249  65.9311 0001566  87.7190 272.4170 14.26739583399569"
      },
      "geometry": {
        "type": "Point",
        "coordinates": [
          67.98337295276683,
          -11.5541472546217
        ]
      }
    },
    {
      "type": "Feature",
      "properties": {
        "norad_id": 43461,
        "name": "GAOFEN-5 01",
        "group": "resource",
        "lat": -66.77565706307838,
        "lon": -15.318571956701115,
        "alt_km": 698.867484387396,
        "timestamp": "2025-12-27T05:29:38.851837+00:00",
        "meta_object_name": "GAOFEN-5 01",
        "meta_object_id": "2018-043A",
        "meta_epoch": "2025-12-26T21:35:04.986528",
        "meta_mean_motion": 14.6042519,
        "meta_eccentricity": 5.957e-05,
        "meta_inclination": 98.4347,
        "meta_ra_of_asc_node": 324.1154,
        "meta_arg_of_pericenter": 225.5814,
        "meta_mean_anomaly": 134.5337,
        "meta_ephemeris_type": 0,
        "meta_classification_type": "U",
        "meta_norad_cat_id": 43461,
        "meta_element_set_no": 999,
        "meta_rev_at_epoch": 40654,
        "meta_bstar": 0.00012641217,
        "meta_mean_motion_dot": 5.63e-06,
        "meta_mean_motion_ddot": 0,
        "tle_line1": "1 43461U 18043A   25360.89936327  .00000563  00000+0  12641-3 0  9997",
        "tle_line2": "2 43461  98.4347 324.1154 0000595 225.5814 134.5337 14.60425190406548"
      },
      "geometry": {
        "type": "Point",
        "coordinates": [
          -15.318571956701115,
          -66.77565706307838
        ]
      }
    },
    {
      "type": "Feature",
      "properties": {
        "norad_id": 43484,
        "name": "GAOFEN-6",
        "group": "resource",
        "lat": 47.666587801891154,
        "lon": 56.3527297396856,
        "alt_km": 628.1929893390552,
        "timestamp": "2025-12-27T05:29:38.851847+00:00",
        "meta_object_name": "GAOFEN-6",
        "meta_object_id": "2018-048A",
        "meta_epoch": "2025-12-26T22:46:17.177952",
        "meta_mean_motion": 14.76591742,
        "meta_eccentricity": 0.00123937,
        "meta_inclination": 97.8008,
        "meta_ra_of_asc_node": 64.737,
        "meta_arg_of_pericenter": 21.2671,
        "meta_mean_anomaly": 338.9052,
        "meta_ephemeris_type": 0,
        "meta_classification_type": "U",
        "meta_norad_cat_id": 43484,
        "meta_element_set_no": 999,
        "meta_rev_at_epoch": 40797,
        "meta_bstar": 0.00016508203,
        "meta_mean_motion_dot": 1.104e-05,
        "meta_mean_motion_ddot": 0,
        "tle_line1": "1 43484U 18048A   25360.94880993  .00001104  00000+0  16508-3 0  9998",
        "tle_line2": "2 43484  97.8008  64.7370 0012393  21.2671 338.9052 14.76591742407974"
      },
      "geometry": {
        "type": "Point",
        "coordinates": [
          56.3527297396856,
          47.666587801891154
        ]
      }
    },
    {
      "type": "Feature",
      "properties": {
        "norad_id": 43585,
        "name": "GAOFEN-11 01",
        "group": "resource",
        "lat": 47.33933357418265,
        "lon": 56.20978761585159,
        "alt_km": 416.3826191935468,
        "timestamp": "2025-12-27T05:29:38.851857+00:00",
        "meta_object_name": "GAOFEN-11 01",
        "meta_object_id": "2018-063A",
        "meta_epoch": "2025-12-26T23:05:20.801184",
        "meta_mean_motion": 15.49612162,
        "meta_eccentricity": 0.00039531,
        "meta_inclination": 97.1538,
        "meta_ra_of_asc_node": 63.7788,
        "meta_arg_of_pericenter": 238.8916,
        "meta_mean_anomaly": 121.1949,
        "meta_ephemeris_type": 0,
        "meta_classification_type": "U",
        "meta_norad_cat_id": 43585,
        "meta_element_set_no": 999,
        "meta_rev_at_epoch": 41362,
        "meta_bstar": 0.00012195313,
        "meta_mean_motion_dot": 6.65e-05,
        "meta_mean_motion_ddot": 0,
        "tle_line1": "1 43585U 18063A   25360.96204631  .00006650  00000+0  12195-3 0  9997",
        "tle_line2": "2 43585  97.1538  63.7788 0003953 238.8916 121.1949 15.49612162413626"
      },
      "geometry": {
        "type": "Point",
        "coordinates": [
          56.20978761585159,
          47.33933357418265
        ]
      }
    },
    {
      "type": "Feature",
      "properties": {
        "norad_id": 43613,
        "name": "ICESAT-2",
        "group": "resource",
        "lat": 61.36994600990339,
        "lon": 68.32430200581442,
        "alt_km": 472.89597790844346,
        "timestamp": "2025-12-27T05:29:38.851868+00:00",
        "meta_object_name": "ICESAT-2",
        "meta_object_id": "2018-070A",
        "meta_epoch": "2025-12-26T22:41:29.791680",
        "meta_mean_motion": 15.28284921,
        "meta_eccentricity": 0.00032432,
        "meta_inclination": 92.0036,
        "meta_ra_of_asc_node": 244.571,
        "meta_arg_of_pericenter": 108.4155,
        "meta_mean_anomaly": 251.7447,
        "meta_ephemeris_type": 0,
        "meta_classification_type": "U",
        "meta_norad_cat_id": 43613,
        "meta_element_set_no": 999,
        "meta_rev_at_epoch": 40615,
        "meta_bstar": 0.00052629335,
        "meta_mean_motion_dot": 0.00014505,
        "meta_mean_motion_ddot": 0,
        "tle_line1": "1 43613U 18070A   25360.94548370  .00014505  00000+0  52629-3 0  9990",
        "tle_line2": "2 43613  92.0036 244.5710 0003243 108.4155 251.7447 15.28284921406156"
      },
      "geometry": {
        "type": "Point",
        "coordinates": [
          68.32430200581442,
          61.36994600990339
        ]
      }
    },
    {
      "type": "Feature",
      "properties": {
        "norad_id": 43719,
        "name": "HYSIS",
        "group": "resource",
        "lat": -12.468347375330705,
        "lon": -117.6493579767505,
        "alt_km": 638.3548853638795,
        "timestamp": "2025-12-27T05:29:38.851878+00:00",
        "meta_object_name": "HYSIS",
        "meta_object_id": "2018-096A",
        "meta_epoch": "2025-12-26T23:45:15.416928",
        "meta_mean_motion": 14.7868174,
        "meta_eccentricity": 7.51e-05,
        "meta_inclination": 98.0075,
        "meta_ra_of_asc_node": 63.8964,
        "meta_arg_of_pericenter": 56.6944,
        "meta_mean_anomaly": 303.4339,
        "meta_ephemeris_type": 0,
        "meta_classification_type": "U",
        "meta_norad_cat_id": 43719,
        "meta_element_set_no": 999,
        "meta_rev_at_epoch": 38197,
        "meta_bstar": 0.00013562801,
        "meta_mean_motion_dot": 9.42e-06,
        "meta_mean_motion_ddot": 0,
        "tle_line1": "1 43719U 18096A   25360.98976177  .00000942  00000+0  13563-3 0  9993",
        "tle_line2": "2 43719  98.0075  63.8964 0000751  56.6944 303.4339 14.78681740381977"
      },
      "geometry": {
        "type": "Point",
        "coordinates": [
          -117.6493579767505,
          -12.468347375330705
        ]
      }
    }
  ]
}